STARLINK-5527           
1 56497U 23064BB  26068.47617280  .00001077  00000+0  98056-4 0  9999
2 56497  69.9995 104.8725 0003128 269.9984  90.0817 14.98325687156200
HAWK-10C                
1 60575U 24149DM  26068.80000012  .00002841  00000+0  25720-3 0  9999
2 60575  97.6791 145.3128 0003886  47.6078 312.5472 14.96177491 85124
